OBJECT_NAME,OBJECT_ID,EPOCH,MEAN_MOTION,ECCENTRICITY,INCLINATION,RA_OF_ASC_NODE,ARG_OF_PERICENTER,MEAN_ANOMALY,EPHEMERIS_TYPE,CLASSIFICATION_TYPE,NORAD_CAT_ID,ELEMENT_SET_NO,REV_AT_EPOCH,BSTAR,MEAN_MOTION_DOT,MEAN_MOTION_DDOT
STARLINK-33705,2025-083T,2026-07-24T07:39:33.342624,15.27590746,.00009863,42.9993,313.5011,296.5239,63.5511,0,U,63651,999,7099,.82018751E-3,.22384E-3,0
STARLINK-33663,2025-083U,2026-07-24T07:28:27.034464,15.27599622,.0001269,42.9968,313.4340,264.5168,95.5539,0,U,63652,999,7096,.80152824E-3,.21873E-3,0
STARLINK-33866,2025-083V,2026-07-24T06:38:42.660096,15.27576610,.00019854,43.0037,314.0477,267.7096,92.3528,0,U,63653,999,7098,.91817312E-3,.25088E-3,0
STARLINK-33849,2025-083W,2026-07-23T08:36:48.184992,15.27605085,.0001798,43.0051,319.1922,210.8857,149.1889,0,U,63654,999,7081,.97613E-3,.26717E-3,0
STARLINK-33873,2025-083X,2026-07-24T06:36:51.821856,15.27619339,.00022419,43.0032,314.0368,269.6874,90.3720,0,U,63655,999,7098,.14088636E-2,.38758E-3,0
STARLINK-33772,2025-083Y,2026-07-24T07:46:57.421344,15.27587107,.00013497,43.0007,313.5399,270.9916,89.0781,0,U,63656,999,7099,.71098912E-3,.19358E-3,0
STARLINK-33789,2025-083Z,2026-07-24T07:35:51.494208,15.27590082,.00010285,42.9994,313.4826,268.5654,91.5080,0,U,63657,999,7099,.88571153E-3,.24198E-3,0
STARLINK-33822,2025-083AA,2026-07-23T14:51:35.201088,15.27580682,.0001656,43.0028,317.7082,277.4688,82.5975,0,U,63658,999,7088,.61754E-3,.1677E-3,0
STARLINK-33771,2025-083AB,2026-07-24T07:35:10.161312,15.27604987,.00005962,42.9988,317.0126,128.8341,231.2564,0,U,63659,999,7095,.11459178E-2,.31429E-3,0
STARLINK-33810,2025-083AC,2026-07-24T07:22:54.013440,15.27593566,.00010704,42.9991,313.4107,279.1186,80.9545,0,U,63660,999,7099,.98750322E-3,.27023E-3,0
STARLINK-33823,2025-083AD,2026-07-23T17:54:20.918880,15.27579027,.00014521,42.9992,316.9468,268.7306,91.3379,0,U,63661,999,7090,.55776753E-3,.15118E-3,0
STARLINK-11651 [DTC],2025-085A,2026-07-23T23:57:35.682624,15.70816273,.00014702,42.9975,176.4382,203.4793,156.6008,0,U,63664,999,7169,.17746008E-2,.233538E-2,0
STARLINK-11672 [DTC],2025-085B,2026-07-23T23:49:57.396288,15.70840231,.00027404,42.9985,176.3923,294.2560,65.8021,0,U,63665,999,7229,.11356002E-2,.147899E-2,0
STARLINK-11666 [DTC],2025-085D,2026-07-23T08:26:53.843712,15.70863431,.0001659,43.0011,181.0803,266.7343,93.3335,0,U,63667,999,7148,.85619E-3,.111001E-2,0
STARLINK-11663 [DTC],2025-085E,2026-07-24T07:12:39.190176,15.70922653,.00011944,43.0002,175.2878,297.5360,62.5387,0,U,63668,999,7173,.20483691E-2,.272117E-2,0
STARLINK-11595 [DTC],2025-085F,2026-07-24T07:04:59.372832,15.70968950,.00016786,42.9991,175.2447,268.2040,91.8635,0,U,63669,999,7237,.19008983E-2,.252378E-2,0
STARLINK-11599 [DTC],2025-085G,2026-07-24T06:57:21.600576,15.70930912,.00016429,42.9996,175.2012,287.0195,73.0493,0,U,63670,999,7172,.20600197E-2,.273818E-2,0
STARLINK-11603 [DTC],2025-085H,2026-07-24T06:49:42.149568,15.71064605,.00019288,42.9998,175.1599,313.8564,46.2145,0,U,63671,999,7172,.17144283E-2,.227814E-2,0
STARLINK-11644 [DTC],2025-085J,2026-07-24T06:42:03.669696,15.71041304,.00026672,42.9994,175.1149,264.8522,95.2042,0,U,63672,999,7172,.17870951E-2,.237546E-2,0
STARLINK-11634 [DTC],2025-085K,2026-07-24T06:34:25.404960,15.70903552,.00011947,42.9997,175.0715,283.4647,76.6087,0,U,63673,999,7172,.19354686E-2,.256396E-2,0
STARLINK-11656 [DTC],2025-085L,2026-07-24T06:26:46.743648,15.71094243,.00022195,43.0000,175.0289,288.1073,71.9553,0,U,63674,999,7172,.16336135E-2,.217044E-2,0
STARLINK-11655 [DTC],2025-085M,2026-07-24T06:19:06.310272,15.71017705,.00065179,43.0017,174.9849,238.8266,121.1963,0,U,63675,999,7172,.16874243E-2,.223849E-2,0
STARLINK-11661 [DTC],2025-085N,2026-07-24T00:05:14.733600,15.70837582,.00017927,43.0009,176.4747,278.1850,81.8815,0,U,63676,999,7233,.10849408E-2,.141139E-2,0
STARLINK-33816,2025-085P,2026-07-23T09:38:46.042656,15.27584643,.00008383,42.9969,344.6311,288.4641,71.6120,0,U,63677,999,6972,.10994911E-2,.30121E-3,0
STARLINK-33861,2025-085Q,2026-07-23T17:36:56.666016,15.27590331,.00014209,43.0011,342.8301,272.2879,87.7810,0,U,63678,999,6966,.97726675E-3,.26736E-3,0
STARLINK-33850,2025-085R,2026-07-23T10:52:36.103296,15.27577058,.0001961,43.0039,344.1571,276.9229,83.1400,0,U,63679,999,6962,.91308E-3,.24947E-3,0
STARLINK-33887,2025-085S,2026-07-23T17:58:56.908128,15.27583181,.00003389,42.9969,342.0750,4.2584,355.8271,0,U,63680,999,6974,.54575207E-3,.14788E-3,0
STARLINK-33886,2025-085T,2026-07-23T17:53:23.193312,15.27581618,.00018129,43.0019,342.0468,270.0404,90.0240,0,U,63681,999,6968,.62935796E-3,.17098E-3,0
STARLINK-33840,2025-085U,2026-07-23T17:31:23.980224,15.27574497,.00013694,42.9992,342.7929,263.8017,96.2678,0,U,63682,999,6967,.41632738E-3,.1121E-3,0
STARLINK-33853,2025-085W,2026-07-23T16:37:43.697568,15.27584686,.00016496,43.0080,342.5069,238.1323,121.9369,0,U,63684,999,6967,.7386835E-3,.20123E-3,0
