{"epoch":1784902576,"count":18312,"objects":[{"id":"63651","name":"STARLINK-33705","type":"PAYLOAD","l1":"1 63651U 25083T   26205.31913591  .00022384  00000-0  82019-3 0  9998","l2":"2 63651  42.9993 313.5011 0000986 296.5239  63.5511 15.27590746 70994"},{"id":"63652","name":"STARLINK-33663","type":"PAYLOAD","l1":"1 63652U 25083U   26205.31142401  .00021873  00000-0  80153-3 0  9992","l2":"2 63652  42.9968 313.4340 0001269 264.5168  95.5539 15.27599622 70966"},{"id":"63653","name":"STARLINK-33866","type":"PAYLOAD","l1":"1 63653U 25083V   26205.27688264  .00025088  00000-0  91817-3 0  9991","l2":"2 63653  43.0037 314.0477 0001985 267.7096  92.3528 15.27576610 70981"},{"id":"63654","name":"STARLINK-33849","type":"PAYLOAD","l1":"1 63654U 25083W   26204.35889103  .00026717  00000-0  97613-3 0  9995","l2":"2 63654  43.0051 319.1922 0001798 210.8857 149.1889 15.27605085 70817"},{"id":"63655","name":"STARLINK-33873","type":"PAYLOAD","l1":"1 63655U 25083X   26205.27559979  .00038758  00000-0  14089-2 0  9996","l2":"2 63655  43.0032 314.0368 0002242 269.6874  90.3720 15.27619339 70987"},{"id":"63656","name":"STARLINK-33772","type":"PAYLOAD","l1":"1 63656U 25083Y   26205.32427571  .00019358  00000-0  71099-3 0  9995","l2":"2 63656  43.0007 313.5399 0001350 270.9916  89.0781 15.27587107 70999"},{"id":"63657","name":"STARLINK-33789","type":"PAYLOAD","l1":"1 63657U 25083Z   26205.31656822  .00024198  00000-0  88571-3 0  9999","l2":"2 63657  42.9994 313.4826 0001029 268.5654  91.5080 15.27590082 70998"},{"id":"63658","name":"STARLINK-33822","type":"PAYLOAD","l1":"1 63658U 25083AA  26204.61915742  .00016770  00000-0  61754-3 0  9992","l2":"2 63658  43.0028 317.7082 0001656 277.4688  82.5975 15.27580682 70888"},{"id":"63659","name":"STARLINK-33771","type":"PAYLOAD","l1":"1 63659U 25083AB  26205.31608983  .00031429  00000-0  11459-2 0  9991","l2":"2 63659  42.9988 317.0126 0000596 128.8341 231.2564 15.27604987 70951"},{"id":"63660","name":"STARLINK-33810","type":"PAYLOAD","l1":"1 63660U 25083AC  26205.30756960  .00027023  00000-0  98750-3 0  9996","l2":"2 63660  42.9991 313.4107 0001070 279.1186  80.9545 15.27593566 70993"},{"id":"63661","name":"STARLINK-33823","type":"PAYLOAD","l1":"1 63661U 25083AD  26204.74607545  .00015118  00000-0  55777-3 0  9992","l2":"2 63661  42.9992 316.9468 0001452 268.7306  91.3379 15.27579027 70903"},{"id":"63664","name":"STARLINK-11651","type":"PAYLOAD","l1":"1 63664U 25085A   26204.99832966  .00233538  00000-0  17746-2 0  9992","l2":"2 63664  42.9975 176.4382 0001470 203.4793 156.6008 15.70816273 71693"},{"id":"63665","name":"STARLINK-11672","type":"PAYLOAD","l1":"1 63665U 25085B   26204.99302542  .00147899  00000-0  11356-2 0  9990","l2":"2 63665  42.9985 176.3923 0002740 294.2560  65.8021 15.70840231 72290"},{"id":"63667","name":"STARLINK-11666","type":"PAYLOAD","l1":"1 63667U 25085D   26204.35201208  .00111001  00000-0  85619-3 0  9999","l2":"2 63667  43.0011 181.0803 0001659 266.7343  93.3335 15.70863431 71486"},{"id":"63668","name":"STARLINK-11663","type":"PAYLOAD","l1":"1 63668U 25085E   26205.30045359  .00272117  00000-0  20484-2 0  9993","l2":"2 63668  43.0002 175.2878 0001194 297.5360  62.5387 15.70922653 71734"},{"id":"63669","name":"STARLINK-11595","type":"PAYLOAD","l1":"1 63669U 25085F   26205.29513163  .00252378  00000-0  19009-2 0  9993","l2":"2 63669  42.9991 175.2447 0001679 268.2040  91.8635 15.70968950 72372"},{"id":"63670","name":"STARLINK-11599","type":"PAYLOAD","l1":"1 63670U 25085G   26205.28983334  .00273818  00000-0  20600-2 0  9996","l2":"2 63670  42.9996 175.2012 0001643 287.0195  73.0493 15.70930912 71727"},{"id":"63671","name":"STARLINK-11603","type":"PAYLOAD","l1":"1 63671U 25085H   26205.28451562  .00227814  00000-0  17144-2 0  9994","l2":"2 63671  42.9998 175.1599 0001929 313.8564  46.2145 15.71064605 71728"},{"id":"63672","name":"STARLINK-11644","type":"PAYLOAD","l1":"1 63672U 25085J   26205.27920914  .00237546  00000-0  17871-2 0  9996","l2":"2 63672  42.9994 175.1149 0002667 264.8522  95.2042 15.71041304 71726"},{"id":"63673","name":"STARLINK-11634","type":"PAYLOAD","l1":"1 63673U 25085K   26205.27390515  .00256396  00000-0  19355-2 0  9998","l2":"2 63673  42.9997 175.0715 0001195 283.4647  76.6087 15.70903552 71721"},{"id":"63674","name":"STARLINK-11656","type":"PAYLOAD","l1":"1 63674U 25085L   26205.26859657  .00217044  00000-0  16336-2 0  9998","l2":"2 63674  43.0000 175.0289 0002220 288.1073  71.9553 15.71094243 71725"},{"id":"63675","name":"STARLINK-11655","type":"PAYLOAD","l1":"1 63675U 25085M   26205.26326748  .00223849  00000-0  16874-2 0  9996","l2":"2 63675  43.0017 174.9849 0006518 238.8266 121.1963 15.71017705 71725"},{"id":"63676","name":"STARLINK-11661","type":"PAYLOAD","l1":"1 63676U 25085N   26205.00364275  .00141139  00000-0  10849-2 0  9993","l2":"2 63676  43.0009 176.4747 0001793 278.1850  81.8815 15.70837582 72335"},{"id":"63677","name":"STARLINK-33816","type":"PAYLOAD","l1":"1 63677U 25085P   26204.40192179  .00030121  00000-0  10995-2 0  9999","l2":"2 63677  42.9969 344.6311 0000838 288.4641  71.6120 15.27584643 69720"},{"id":"63678","name":"STARLINK-33861","type":"PAYLOAD","l1":"1 63678U 25085Q   26204.73398919  .00026736  00000-0  97727-3 0  9992","l2":"2 63678  43.0011 342.8301 0001421 272.2879  87.7810 15.27590331 69661"},{"id":"63679","name":"STARLINK-33850","type":"PAYLOAD","l1":"1 63679U 25085R   26204.45319564  .00024947  00000-0  91308-3 0  9992","l2":"2 63679  43.0039 344.1571 0001961 276.9229  83.1400 15.27577058 69627"},{"id":"63680","name":"STARLINK-33887","type":"PAYLOAD","l1":"1 63680U 25085S   26204.74926977  .00014788  00000-0  54575-3 0  9995","l2":"2 63680  42.9969 342.0750 0000339   4.2584 355.8271 15.27583181 69741"},{"id":"63681","name":"STARLINK-33886","type":"PAYLOAD","l1":"1 63681U 25085T   26204.74540733  .00017098  00000-0  62936-3 0  9995","l2":"2 63681  43.0019 342.0468 0001813 270.0404  90.0240 15.27581618 69688"},{"id":"63682","name":"STARLINK-33840","type":"PAYLOAD","l1":"1 63682U 25085U   26204.73013866  .00011210  00000-0  41633-3 0  9998","l2":"2 63682  42.9992 342.7929 0001369 263.8017  96.2678 15.27574497 69671"},{"id":"63684","name":"STARLINK-33853","type":"PAYLOAD","l1":"1 63684U 25085W   26204.69286687  .00020123  00000-0  73868-3 0  9996","l2":"2 63684  43.0080 342.5069 0001650 238.1323 121.9369 15.27584686 69678"}]}